     2.100          NAVIGATION                              RINEX VERSION / TYPE
fic2rin                                 02/09/2013 00:27:34 PGM / RUN BY / DATE
                                                            END OF HEADER
 5 13  2  8  3 59 44.0 -.382686499506D-03 -.181898940355D-11  .000000000000D+00
     .500000000000D+01 -.160937500000D+02  .522343186262D-08  .170927377201D+01
    -.786036252975D-06  .308543338906D-02  .551901757717D-05  .515354410744D+04
     .446384000000D+06 -.167638063431D-07  .158362844732D+01  .149011611938D-07
     .948830637210D+00  .268437500000D+03  .321141878974D+00 -.836177687300D-08
    -.298583865788D-09  .100000000000D+01  .172600000000D+04  .000000000000D+00
     .240000000000D+01  .000000000000D+00 -.102445483208D-07  .500000000000D+01
     .440226000000D+06  .400000000000D+01
27 13  2  8  3 59 44.0 -.187592115253D-03  .306954461848D-11  .000000000000D+00
     .130000000000D+02 -.509062500000D+02  .590096008439D-08  .195430696926D+01
    -.270083546638D-05  .578636664432D-02  .977888703346D-06  .515363388252D+04
     .446384000000D+06 -.838190317154D-07 -.154734920247D+01 -.298023223877D-07
     .976245833198D+00  .370562500000D+03  .838388750097D+00 -.842820821156D-08
    -.168578450541D-09  .100000000000D+01  .172600000000D+04  .000000000000D+00
     .240000000000D+01  .630000000000D+02 -.190921127796D-07  .130000000000D+02
     .441456000000D+06  .400000000000D+01
 6 13  2  8  3 59 44.0  .358954537660D-03 -.143245415529D-10  .000000000000D+00
     .520000000000D+02 -.130156250000D+03  .483770150969D-08  .170944314720D+01
    -.653415918350D-05  .769534124993D-02  .932440161705D-05  .515369188118D+04
     .446384000000D+06  .838190317154D-07 -.570091037277D+00  .800937414169D-07
     .940428441831D+00  .186937500000D+03 -.387225981859D+00 -.815355391396D-08
    -.272868508926D-09  .100000000000D+01  .172600000000D+04  .000000000000D+00
     .240000000000D+01  .000000000000D+00 -.512227416039D-08  .520000000000D+02
     .442596000000D+06  .400000000000D+01
23 13  2  8  3 59 44.0  .116034876555D-03 -.375166564481D-11  .000000000000D+00
     .700000000000D+01  .284375000000D+02  .436125309227D-08 -.109573311688D+00
     .156275928020D-05  .817454583012D-02  .115185976028D-04  .515376036072D+04
     .446384000000D+06  .111758708954D-06  .264588945141D+01  .819563865662D-07
     .957183905295D+00  .156562500000D+03 -.291524336914D+01 -.799854745732D-08
    -.351800368183D-09  .100000000000D+01  .172600000000D+04  .000000000000D+00
     .240000000000D+01  .000000000000D+00 -.200234353542D-07  .700000000000D+01
     .444546000000D+06  .400000000000D+01
 4 13  2  8  3 59 44.0  .128247309476D-03  .111413100967D-10  .000000000000D+00
     .200000000000D+01  .326250000000D+02  .508449750402D-08  .291306910422D+01
     .159628689289D-05  .103616586421D-01  .880286097527D-05  .515373999214D+04
     .446384000000D+06  .484287738800D-07  .535367523886D+00 -.726431608200D-07
     .937984821507D+00  .196812500000D+03  .959016420849D+00 -.810748056625D-08
     .594667627436D-09  .100000000000D+01  .172600000000D+04  .000000000000D+00
     .240000000000D+01  .000000000000D+00 -.605359673500D-08  .200000000000D+01
     .444696000000D+06  .400000000000D+01
18 13  2  8  3 59 44.0  .238313805312D-03  .193267624127D-11  .000000000000D+00
     .100000000000D+01 -.201250000000D+02  .559094717111D-08  .252287555354D+01
    -.113807618618D-05  .137137654237D-01  .504031777382D-05  .515375072479D+04
     .446384000000D+06  .100582838058D-06  .158851557532D+01 -.214204192162D-06
     .927462983642D+00  .263343750000D+03 -.212803383228D+01 -.839677833095D-08
    -.196436753808D-09  .100000000000D+01  .172600000000D+04  .000000000000D+00
     .240000000000D+01  .000000000000D+00 -.107102096081D-07  .100000000000D+01
     .445476000000D+06  .400000000000D+01
 4 13  2  8  5 59 44.0  .128327403218D-03  .111413100967D-10  .000000000000D+00
     .180000000000D+02  .381562500000D+02  .506271088223D-08 -.231994935475D+01
     .190176069736D-05  .103605972836D-01  .908039510250D-05  .515374202156D+04
     .453584000000D+06  .875443220139D-07  .535308913536D+00 -.428408384323D-07
     .937989186855D+00  .191281250000D+03  .958993356483D+00 -.812105256015D-08
     .628240454451D-09  .100000000000D+01  .172600000000D+04  .000000000000D+00
     .240000000000D+01  .000000000000D+00 -.605359673500D-08  .180000000000D+02
     .446406000000D+06  .400000000000D+01
 5 13  2  8  5 59 44.0 -.382700003684D-03 -.181898940355D-11  .000000000000D+00
     .600000000000D+01 -.202812500000D+02  .522164607395D-08  .275937063569D+01
    -.107660889626D-05  .308483862318D-02  .531226396561D-05  .515354557037D+04
     .453584000000D+06 -.223517417908D-07  .158356824824D+01  .223517417908D-07
     .948828447222D+00  .272625000000D+03  .321309960947D+00 -.836963434315D-08
    -.301083969927D-09  .100000000000D+01  .172600000000D+04  .000000000000D+00
     .240000000000D+01  .000000000000D+00 -.102445483208D-07  .600000000000D+01
     .446406000000D+06  .400000000000D+01
 6 13  2  8  5 59 44.0  .358851626515D-03 -.143245415529D-10  .000000000000D+00
     .530000000000D+02 -.146000000000D+03  .472019661514D-08  .275929928625D+01
    -.734440982342D-05  .769312086049D-02  .103153288364D-04  .515369799995D+04
     .453584000000D+06 -.838190317154D-07 -.570150311792D+00  .149011611938D-06
     .940427035967D+00  .169031250000D+03 -.386911518841D+00 -.808997983728D-08
    -.142863093678D-09  .100000000000D+01  .172600000000D+04  .000000000000D+00
     .240000000000D+01  .000000000000D+00 -.512227416039D-08  .530000000000D+02
     .446406000000D+06  .400000000000D+01
18 13  2  8  5 59 44.0  .238327309489D-03  .193267624127D-11  .000000000000D+00
     .400000000000D+01 -.211562500000D+02  .558523264736D-08 -.271016727033D+01
    -.113621354103D-05  .137139202561D-01  .502914190292D-05  .515375043488D+04
     .453584000000D+06  .124797224998D-06  .158845547864D+01 -.106170773506D-06
     .927461604110D+00  .263656250000D+03 -.212803483292D+01 -.835713382245D-08
    -.196793911542D-09  .100000000000D+01  .172600000000D+04  .000000000000D+00
     .240000000000D+01  .000000000000D+00 -.107102096081D-07  .400000000000D+01
     .446406000000D+06  .400000000000D+01
23 13  2  8  5 59 44.0  .116008333862D-03 -.375166564481D-11  .000000000000D+00
     .140000000000D+02  .164062500000D+02  .435446709532D-08  .940609422352D+00
     .101700425148D-05  .817258015741D-02  .120010226965D-04  .515375660324D+04
     .453584000000D+06 -.670552253723D-07  .264583302959D+01  .227242708206D-06
     .957181538293D+00  .147031250000D+03 -.291529806180D+01 -.785425573271D-08
    -.473591155544D-09  .100000000000D+01  .172600000000D+04  .000000000000D+00
     .240000000000D+01  .000000000000D+00 -.200234353542D-07  .140000000000D+02
     .446406000000D+06  .400000000000D+01
27 13  2  8  5 59 44.0 -.187569763511D-03  .306954461848D-11  .000000000000D+00
     .140000000000D+02 -.574687500000D+02  .589774566478D-08  .300452468313D+01
    -.303424894810D-05  .578700413462D-02  .104680657387D-05  .515363291740D+04
     .453584000000D+06 -.242143869400D-07 -.154740971608D+01 -.558793544769D-07
     .976244801840D+00  .369187500000D+03  .838386002737D+00 -.839320675361D-08
    -.161792453591D-09  .100000000000D+01  .172600000000D+04  .000000000000D+00
     .240000000000D+01  .630000000000D+02 -.190921127796D-07  .140000000000D+02
     .446406000000D+06  .400000000000D+01
 1 13  2  8  6  0  0.0 -.100582838058D-05  .261479726760D-11  .000000000000D+00
     .240000000000D+02  .224375000000D+02  .457733352146D-08 -.219197192066D+00
     .106915831566D-05  .157606159337D-02  .948458909988D-05  .515370597458D+04
     .453600000000D+06  .223517417908D-07  .538041550882D+00 -.372529029846D-08
     .960432804967D+00  .194593750000D+03  .434881521372D+00 -.799997608826D-08
     .514664294977D-09  .100000000000D+01  .172600000000D+04  .000000000000D+00
     .240000000000D+01  .000000000000D+00  .838190317154D-08  .240000000000D+02
     .446406000000D+06  .400000000000D+01
 2 13  2  8  6  0  0.0  .417656730860D-03  .159161572810D-11  .000000000000D+00
     .690000000000D+02  .368750000000D+02  .520307387177D-08  .714745506328D+00
     .206008553505D-05  .119969202206D-01  .884011387825D-05  .515360145569D+04
     .453600000000D+06 -.447034835815D-07  .518750369087D+00  .268220901489D-06
     .938963746306D+00  .199156250000D+03 -.267433518395D+01 -.841785063727D-08
     .437875382124D-09  .100000000000D+01  .172600000000D+04  .000000000000D+00
     .240000000000D+01  .000000000000D+00 -.176951289177D-07  .690000000000D+02
     .446406000000D+06  .400000000000D+01
 3 13  2  8  6  0  0.0  .165577512234D-03  .511590769747D-11  .000000000000D+00
     .330000000000D+02 -.137625000000D+03  .514092842602D-08  .873345990983D+00
    -.707060098648D-05  .159618685720D-01  .966899096966D-05  .515368285370D+04
     .453600000000D+06 -.245869159698D-06 -.648780430846D+00  .372529029846D-08
     .933668676282D+00  .186031250000D+03  .126846498057D+01 -.861428739108D-08
    -.291440711104D-09  .100000000000D+01  .172600000000D+04  .000000000000D+00
     .340000000000D+01  .000000000000D+00 -.465661287308D-08  .330000000000D+02
     .446406000000D+06  .400000000000D+01
 7 13  2  8  6  0  0.0  .178184360266D-03  .432009983342D-11  .000000000000D+00
     .920000000000D+02  .125156250000D+03  .415195866003D-08 -.684685044315D+00
     .659935176373D-05  .605647754855D-02  .619515776634D-05  .515371309090D+04
     .453600000000D+06  .745058059692D-07 -.258471498206D+01  .931322574615D-08
     .975915041087D+00  .266312500000D+03 -.292590473282D+01 -.807747931658D-08
     .414302971667D-09  .100000000000D+01  .172600000000D+04  .000000000000D+00
     .240000000000D+01  .000000000000D+00 -.107102096081D-07  .920000000000D+02
     .446406000000D+06  .400000000000D+01
